[{"OBJECT_NAME":"STARLINK-1143","OBJECT_ID":"2020-012B","EPOCH":"2026-03-09T22:47:16.050048","MEAN_MOTION":15.62989311,"ECCENTRICITY":0.00073955,"INCLINATION":53.0474,"RA_OF_ASC_NODE":328.6332,"ARG_OF_PERICENTER":96.968,"MEAN_ANOMALY":263.2175,"EPHEMERIS_TYPE":0,"CLASSIFICATION_TYPE":"U","NORAD_CAT_ID":45179,"ELEMENT_SET_NO":999,"REV_AT_EPOCH":33596,"BSTAR":0.0013180943,"MEAN_MOTION_DOT":0.00123267,"MEAN_MOTION_DDOT":0},{"OBJECT_NAME":"CZ-2C R\/B","OBJECT_ID":"2022-132E","EPOCH":"2026-03-09T22:45:31.665888","MEAN_MOTION":15.61866715,"ECCENTRICITY":0.00206265,"INCLINATION":97.2967,"RA_OF_ASC_NODE":72.2731,"ARG_OF_PERICENTER":90.5762,"MEAN_ANOMALY":269.7859,"EPHEMERIS_TYPE":0,"CLASSIFICATION_TYPE":"U","NORAD_CAT_ID":54039,"ELEMENT_SET_NO":999,"REV_AT_EPOCH":19041,"BSTAR":0.0005096281,"MEAN_MOTION_DOT":0.00044728,"MEAN_MOTION_DDOT":0}]
